{
  "links" : {
    "next" : "https://api.nasa.gov/neo/rest/v1/feed?start_date=2002-01-09&end_date=2002-01-09&detailed=true&api_key=t0TVs3DtDT2H8Oy2Zy8m2eVrNsAVKAexjcZXUckd",
    "prev" : "https://api.nasa.gov/neo/rest/v1/feed?start_date=2002-01-07&end_date=2002-01-07&detailed=true&api_key=t0TVs3DtDT2H8Oy2Zy8m2eVrNsAVKAexjcZXUckd",
    "self" : "https://api.nasa.gov/neo/rest/v1/feed?start_date=2002-01-08&end_date=2002-01-08&detailed=true&api_key=t0TVs3DtDT2H8Oy2Zy8m2eVrNsAVKAexjcZXUckd"
  },
  "element_count" : 6,
  "near_earth_objects" : {
    "2002-01-08" : [ {
      "links" : {
        "self" : "https://api.nasa.gov/neo/rest/v1/neo/3063789?api_key=t0TVs3DtDT2H8Oy2Zy8m2eVrNsAVKAexjcZXUckd"
      },
      "neo_reference_id" : "3063789",
      "name" : "(2000 UR16)",
      "nasa_jpl_url" : "http://ssd.jpl.nasa.gov/sbdb.cgi?sstr=3063789",
      "absolute_magnitude_h" : 23.9,
      "estimated_diameter" : {
        "kilometers" : {
          "estimated_diameter_min" : 0.04411182,
          "estimated_diameter_max" : 0.0986370281
        },
        "meters" : {
          "estimated_diameter_min" : 44.1118199997,
          "estimated_diameter_max" : 98.6370281305
        },
        "miles" : {
          "estimated_diameter_min" : 0.0274098057,
          "estimated_diameter_max" : 0.0612901888
        },
        "feet" : {
          "estimated_diameter_min" : 144.7238235278,
          "estimated_diameter_max" : 323.6123073718
        }
      },
      "is_potentially_hazardous_asteroid" : false,
      "close_approach_data" : [ {
        "close_approach_date" : "2002-01-08",
        "epoch_date_close_approach" : 1010476800000,
        "relative_velocity" : {
          "kilometers_per_second" : "10.270861383",
          "kilometers_per_hour" : "36975.1009787464",
          "miles_per_hour" : "22974.8898275994"
        },
        "miss_distance" : {
          "astronomical" : "0.3387619005",
          "lunar" : "131.7783813477",
          "kilometers" : "50678060",
          "miles" : "31489886"
        },
        "orbiting_body" : "Earth"
      } ],
      "orbital_data" : {
        "orbit_id" : "11",
        "orbit_determination_date" : "2017-04-06 09:16:44",
        "orbit_uncertainty" : "6",
        "minimum_orbit_intersection" : ".0129264",
        "jupiter_tisserand_invariant" : "6.487",
        "epoch_osculation" : "2458000.5",
        "eccentricity" : ".4387000449195672",
        "semi_major_axis" : ".9044015350925558",
        "inclination" : "11.74281001245522",
        "ascending_node_longitude" : "33.816414530866",
        "orbital_period" : "314.1523864062842",
        "perihelion_distance" : ".507640541022126",
        "perihelion_argument" : "228.790937295356",
        "aphelion_distance" : "1.301162529162986",
        "perihelion_time" : "2458049.732400815128",
        "mean_anomaly" : "303.5825890224988",
        "mean_motion" : "1.145940682221724",
        "equinox" : "J2000"
      }
    }, {
      "links" : {
        "self" : "https://api.nasa.gov/neo/rest/v1/neo/3102728?api_key=t0TVs3DtDT2H8Oy2Zy8m2eVrNsAVKAexjcZXUckd"
      },
      "neo_reference_id" : "3102728",
      "name" : "(2002 AY1)",
      "nasa_jpl_url" : "http://ssd.jpl.nasa.gov/sbdb.cgi?sstr=3102728",
      "absolute_magnitude_h" : 20.8,
      "estimated_diameter" : {
        "kilometers" : {
          "estimated_diameter_min" : 0.1838886721,
          "estimated_diameter_max" : 0.411187571
        },
        "meters" : {
          "estimated_diameter_min" : 183.8886720703,
          "estimated_diameter_max" : 411.1875710413
        },
        "miles" : {
          "estimated_diameter_min" : 0.1142630881,
          "estimated_diameter_max" : 0.2555000322
        },
        "feet" : {
          "estimated_diameter_min" : 603.309310875,
          "estimated_diameter_max" : 1349.040630575
        }
      },
      "is_potentially_hazardous_asteroid" : true,
      "close_approach_data" : [ {
        "close_approach_date" : "2002-01-08",
        "epoch_date_close_approach" : 1010476800000,
        "relative_velocity" : {
          "kilometers_per_second" : "16.8863397245",
          "kilometers_per_hour" : "60790.823008267",
          "miles_per_hour" : "37773.0533297757"
        },
        "miss_distance" : {
          "astronomical" : "0.067198624",
          "lunar" : "26.1402664185",
          "kilometers" : "10052772",
          "miles" : "6246502.5"
        },
        "orbiting_body" : "Earth"
      } ],
      "orbital_data" : {
        "orbit_id" : "47",
        "orbit_determination_date" : "2017-04-06 09:27:39",
        "orbit_uncertainty" : "0",
        "minimum_orbit_intersection" : ".00641952",
        "jupiter_tisserand_invariant" : "7.283",
        "epoch_osculation" : "2458000.5",
        "eccentricity" : ".4374006906202719",
        "semi_major_axis" : ".7790041740938509",
        "inclination" : "29.89071890738428",
        "ascending_node_longitude" : "287.8651548990845",
        "orbital_period" : "251.135497652446",
        "perihelion_distance" : ".438267210349126",
        "perihelion_argument" : "323.8299977473249",
        "aphelion_distance" : "1.119741137838576",
        "perihelion_time" : "2457882.776614561926",
        "mean_anomaly" : "168.755190540042",
        "mean_motion" : "1.433489105941586",
        "equinox" : "J2000"
      }
    }, {
      "links" : {
        "self" : "https://api.nasa.gov/neo/rest/v1/neo/3102762?api_key=t0TVs3DtDT2H8Oy2Zy8m2eVrNsAVKAexjcZXUckd"
      },
      "neo_reference_id" : "3102762",
      "name" : "(2002 AA29)",
      "nasa_jpl_url" : "http://ssd.jpl.nasa.gov/sbdb.cgi?sstr=3102762",
      "absolute_magnitude_h" : 24.1,
      "estimated_diameter" : {
        "kilometers" : {
          "estimated_diameter_min" : 0.040230458,
          "estimated_diameter_max" : 0.0899580388
        },
        "meters" : {
          "estimated_diameter_min" : 40.2304579834,
          "estimated_diameter_max" : 89.9580388169
        },
        "miles" : {
          "estimated_diameter_min" : 0.0249980399,
          "estimated_diameter_max" : 0.0558973165
        },
        "feet" : {
          "estimated_diameter_min" : 131.9896957704,
          "estimated_diameter_max" : 295.1379320721
        }
      },
      "is_potentially_hazardous_asteroid" : false,
      "close_approach_data" : [ {
        "close_approach_date" : "2002-01-08",
        "epoch_date_close_approach" : 1010476800000,
        "relative_velocity" : {
          "kilometers_per_second" : "5.8601137836",
          "kilometers_per_hour" : "21096.4096208537",
          "miles_per_hour" : "13108.4885224688"
        },
        "miss_distance" : {
          "astronomical" : "0.0428814003",
          "lunar" : "16.6808643341",
          "kilometers" : "6414966",
          "miles" : "3986075.25"
        },
        "orbiting_body" : "Earth"
      } ],
      "orbital_data" : {
        "orbit_id" : "21",
        "orbit_determination_date" : "2017-04-06 09:15:33",
        "orbit_uncertainty" : "0",
        "minimum_orbit_intersection" : ".012946",
        "jupiter_tisserand_invariant" : "6.101",
        "epoch_osculation" : "2458000.5",
        "eccentricity" : ".01296125557883429",
        "semi_major_axis" : ".9925462692961411",
        "inclination" : "10.74760091756775",
        "ascending_node_longitude" : "106.3717237836368",
        "orbital_period" : "361.1807278371487",
        "perihelion_distance" : ".9796816234259753",
        "perihelion_argument" : "101.6388260670472",
        "aphelion_distance" : "1.005410915166307",
        "perihelion_time" : "2458172.580482216544",
        "mean_anomaly" : "188.4820622381388",
        "mean_motion" : ".9967309223716914",
        "equinox" : "J2000"
      }
    } ]
  }
}